OBJECT_NAME,OBJECT_ID,EPOCH,MEAN_MOTION,ECCENTRICITY,INCLINATION,RA_OF_ASC_NODE,ARG_OF_PERICENTER,MEAN_ANOMALY,EPHEMERIS_TYPE,CLASSIFICATION_TYPE,NORAD_CAT_ID,ELEMENT_SET_NO,REV_AT_EPOCH,BSTAR,MEAN_MOTION_DOT,MEAN_MOTION_DDOT
COSMOS 2507 (RODNIK-S 13),2015-050A,2026-06-12T05:47:52.005696,12.42926518,.00104275,82.4920,82.7486,7.2705,352.8524,0,U,40920,999,48624,-.29993331E-3,-.32E-6,0
COSMOS 2508 (RODNIK-S 14),2015-050B,2026-06-12T06:38:56.503968,12.42914119,.00153158,82.4873,81.2336,36.9953,323.2180,0,U,40921,999,48623,.14820966E-3,.3E-6,0
COSMOS 2509 (RODNIK-S 15),2015-050C,2026-06-12T05:12:08.293824,12.42883399,.00158115,82.4881,81.3729,53.0641,307.1884,0,U,40922,999,48626,-.21629071E-3,-.2E-6,0
LQSAT,2015-057A,2026-06-12T06:13:08.788800,14.76776684,.00155872,97.6679,156.8779,291.2753,68.6793,0,U,40958,999,57458,.36411897E-4,.207E-5,0
LINGQIAO VIDEO A,2015-057B,2026-06-12T06:46:00.590592,14.77386833,.0015273,97.6620,158.3259,288.0440,71.9107,0,U,40959,999,57468,.12372133E-3,.833E-5,0
LINGQIAO VIDEO B,2015-057C,2026-06-12T06:12:55.623168,14.77492274,.00154411,97.6585,159.4689,288.1556,71.7974,0,U,40960,999,57472,.64128023E-4,.409E-5,0
JILIN-1,2015-057D,2026-06-12T06:35:35.665440,14.78152902,.00153463,97.6507,162.8854,280.7427,79.2057,0,U,40961,999,57488,.11835035E-3,.81E-5,0
FOX-1A (AO-85),2015-058D,2026-06-11T17:14:16.526976,14.90943463,.0130128,64.7758,295.9784,58.7261,302.6519,0,U,40967,999,11275,.20996848E-3,.2264E-4,0
ELEKTRO-L 2,2015-074A,2026-06-12T01:09:11.108736,1.00271076,.00008075,6.6796,70.5874,263.0780,289.5215,0,U,41105,999,3845,0,-.106E-5,0
DAMPE,2015-078A,2026-06-12T06:22:44.042592,15.30774233,.00138101,97.4560,168.7086,92.3367,267.9455,0,U,41173,999,58379,.59141912E-4,.1685E-4,0
ORBCOMM FM114,2015-081A,2026-06-11T08:42:09.406368,14.58851913,.0002127,47.0059,29.5421,183.9472,176.1397,0,U,41179,999,55690,.11441E-3,.369E-5,0
ORBCOMM FM110,2015-081D,2026-06-11T08:25:33.913344,14.58871310,.0002713,47.0030,29.0373,41.4135,318.6956,0,U,41182,999,55677,.15771E-3,.574E-5,0
ORBCOMM FM112,2015-081F,2026-06-12T01:47:47.363136,14.58896525,.000343,47.0000,294.4222,195.8649,164.2129,0,U,41184,999,55820,.14000602E-3,.491E-5,0
ORBCOMM FM113,2015-081G,2026-06-12T01:13:53.961600,14.58853293,.0001998,47.0017,294.9070,204.7602,155.3188,0,U,41185,999,55818,.10704795E-3,.335E-5,0
ORBCOMM FM108,2015-081J,2026-06-11T09:32:13.324416,14.58864517,.000265,47.0051,209.5722,198.8914,161.1874,0,U,41187,999,55923,.10383E-3,.319E-5,0
ORBCOMM FM117,2015-081K,2026-06-12T06:04:36.542208,14.58862164,.00032404,46.9997,204.1607,204.1019,155.9716,0,U,41188,999,55940,.11865895E-3,.39E-5,0
ORBCOMM FM116,2015-081L,2026-06-12T02:19:17.729472,14.58875396,.00008246,47.0032,294.6908,26.2371,333.8557,0,U,41189,999,55819,.14507672E-3,.515E-5,0
CHUBUSAT-2,2016-012B,2026-06-12T05:20:15.366912,15.20831245,.0008866,30.9978,353.9682,26.4295,333.6797,0,U,41338,999,56766,.26225816E-3,.6055E-4,0
CHUBUSAT-3,2016-012C,2026-06-11T22:42:38.913408,15.18513131,.0009318,31.0057,5.2376,11.6643,348.4213,0,U,41339,999,56740,.21464722E-3,.4654E-4,0
HORYU-4,2016-012D,2026-06-12T04:16:37.128000,15.91940402,.0003837,30.9835,115.7146,236.1046,123.9250,0,U,41340,999,57001,.10937709E-2,.381515E-2,.49652686E-4
ZIYUAN 3-02 (ZY 3-02),2016-033A,2026-06-12T06:10:10.297632,15.21434881,.00113703,97.3841,239.1255,309.5616,50.4615,0,U,41556,999,55723,.22554791E-3,.5004E-4,0
CARTOSAT-2C,2016-040A,2026-06-12T06:03:33.187680,15.19278419,.0010143,97.4488,223.2983,147.0136,213.1733,0,U,41599,999,55296,.22589031E-3,.4702E-4,0
LAPAN-A3,2016-040E,2026-06-12T07:06:05.723712,15.33074342,.00114297,97.1483,159.6023,41.9491,318.2625,0,U,41603,999,55406,.10605102E-3,.3319E-4,0
GAOFEN-3,2016-049A,2026-06-12T07:07:31.447200,14.42215197,.00012856,98.4013,171.1566,99.3897,260.7438,0,U,41727,999,51794,.544799E-4,.136E-5,0
PRATHAM,2016-059A,2026-06-12T06:21:48.669696,14.67188902,.0030004,97.8323,160.3391,232.7139,127.1330,0,U,41783,999,51879,.1096768E-3,.574E-5,0
ALSAT-1N,2016-059G,2026-06-12T06:43:49.101888,14.69299325,.0025069,97.8009,166.8496,200.6956,159.3238,0,U,41789,999,51928,.14304518E-3,.801E-5,0
CAS-2T & KS-1Q,2016-066G,2026-06-12T04:25:43.375584,14.44678480,.03426276,98.3821,238.9779,144.6097,217.8365,0,U,41847,999,50407,.23592923E-3,.1632E-4,0
YUNHAI-1 01,2016-068A,2026-06-12T06:39:54.536256,14.32702825,.00063762,98.5835,174.3303,55.0786,305.0996,0,U,41857,999,50112,.19660994E-3,.491E-5,0
RESOURCESAT-2A,2016-074A,2026-06-12T06:50:07.712736,14.21613615,.00033522,98.7527,236.8291,92.4209,267.7352,0,U,41877,999,49360,-.97732442E-4,-.258E-5,0
